NORAD_CAT_ID,OBJECT_NAME,OBJECT_TYPE,EPOCH,MEAN_MOTION,ECCENTRICITY,INCLINATION,RA_OF_ASC_NODE,ARG_OF_PERICENTER,MEAN_ANOMALY,BSTAR,MEAN_MOTION_DOT,MEAN_MOTION_DDOT,TLE_LINE0,TLE_LINE1,TLE_LINE2,SEMIMAJOR_AXIS,PERIOD,APOGEE,PERIGEE,DECAYED
52088.0,STARLINK-3537,PAYLOAD,2023-03-08 19:05:42,15.08841176,0.0001035,53.2149,222.9943,102.6555,257.4553,6.7107e-05,7.8e-06,0.0,0 STARLINK-3537,1 52088U 22029A   23067.79562576  .00000780  00000-0  67107-4 0  9993,2 52088  53.2149 222.9943 0001035 102.6555 257.4553 15.08841176 56602,6917.877,95.437,540.458,539.026,0.0
52088.0,STARLINK-3537,PAYLOAD,2023-03-08 20:41:05,15.08842404,0.0001109,53.2162,222.6978,104.2396,255.8719,9.0417e-05,1.152e-05,0.0,0 STARLINK-3537,1 52088U 22029A   23067.86186609  .00001152  00000-0  90417-4 0  9994,2 52088  53.2162 222.6978 0001109 104.2396 255.8719 15.08842404 56617,6917.873,95.437,540.505,538.971,0.0
52088.0,STARLINK-3537,PAYLOAD,2023-03-09 03:02:37,15.08845431,8.78e-05,53.2183,221.5085,97.9244,262.1848,8.0595e-05,9.95e-06,0.0,0 STARLINK-3537,1 52088U 22029A   23068.12682412  .00000995  00000-0  80595-4 0  9997,2 52088  53.2183 221.5085 0000878  97.9244 262.1848 15.08845431 56650,6917.864,95.437,540.336,539.121,0.0
52088.0,STARLINK-3537,PAYLOAD,2023-03-10 07:39:34,15.08838135,0.0001269,53.218,216.1565,92.2712,267.8425,0.00022911,3.36e-05,0.0,0 STARLINK-3537,1 52088U 22029A   23069.31915117  .00003360  00000-0  22911-3 0  9996,2 52088  53.2180 216.1565 0001269  92.2712 267.8425 15.08838135 56839,6917.886,95.438,540.629,538.873,0.0
52088.0,STARLINK-3537,PAYLOAD,2023-03-10 18:47:16,15.08845449,0.0001117,53.2188,214.0749,79.7729,280.3389,0.00015831,2.233e-05,0.0,0 STARLINK-3537,1 52088U 22029A   23069.78282759  .00002233  00000-0  15831-3 0  9997,2 52088  53.2188 214.0749 0001117  79.7729 280.3389 15.08845449 56901,6917.864,95.437,540.501,538.956,0.0
52088.0,STARLINK-3537,PAYLOAD,2023-03-11 02:44:13,15.08834747,0.0002322,53.218,212.5881,90.04,270.0858,3.6237e-05,2.88e-06,0.0,0 STARLINK-3537,1 52088U 22029A   23070.11403978  .00000288  00000-0  36237-4 0  9996,2 52088  53.2180 212.5881 0002322  90.0400 270.0858 15.08834747 56955,6917.896,95.438,541.368,538.155,0.0
52088.0,STARLINK-3537,PAYLOAD,2023-03-11 09:05:45,15.08837389,0.0001326,53.2168,211.3996,88.864,271.2504,4.8525e-05,4.84e-06,0.0,0 STARLINK-3537,1 52088U 22029A   23070.37899306  .00000484  00000-0  48525-4 0  9999,2 52088  53.2168 211.3996 0001326  88.8640 271.2504 15.08837389 56999,6917.888,95.438,540.671,538.836,0.0
52088.0,STARLINK-3537,PAYLOAD,2023-03-11 18:38:04,15.08781502,9.21e-05,53.215,209.6152,91.3109,268.7988,0.0017368,0.00027417,0.0,0 STARLINK-3537,1 52088U 22029A   23070.77644029  .00027417  00000-0  17368-2 0  9997,2 52088  53.2150 209.6152 0000921  91.3109 268.7988 15.08781502 57053,6918.059,95.441,540.561,539.287,0.0
52088.0,STARLINK-3537,PAYLOAD,2023-03-12 08:56:32,15.08830642,9.18e-05,53.2184,206.9388,63.4889,296.6197,8.97e-06,-1.45e-06,0.0,0 STARLINK-3537,1 52088U 22029A   23071.37259801 -.00000145  00000-0  89700-5 0  9996,2 52088  53.2184 206.9388 0000918  63.4889 296.6197 15.08830642 57144,6917.909,95.438,540.409,539.139,0.0
52088.0,STARLINK-3537,PAYLOAD,2023-03-12 18:28:51,15.08834194,0.0001295,53.216,205.1557,67.731,292.3819,6.7616e-05,7.88e-06,0.0,0 STARLINK-3537,1 52088U 22029A   23071.77003873  .00000788  00000-0  67616-4 0  9999,2 52088  53.2160 205.1557 0001295  67.7310 292.3819 15.08834194 57209,6917.898,95.438,540.659,538.867,0.0
52088.0,STARLINK-3537,PAYLOAD,2023-03-13 08:47:20,15.08828767,0.0001078,53.2181,202.4759,115.5167,244.5937,0.00015982,2.256e-05,0.0,0 STARLINK-3537,1 52088U 22029A   23072.36620403  .00002256  00000-0  15982-3 0  9999,2 52088  53.2181 202.4759 0001078 115.5167 244.5937 15.08828767 57295,6917.915,95.438,540.525,539.034,0.0
52088.0,STARLINK-3537,PAYLOAD,2023-03-14 11:48:52,15.08851777,0.0001295,53.2155,197.422,85.3684,274.7456,0.00025753,3.814e-05,0.0,0 STARLINK-3537,1 52088U 22029A   23073.49227549  .00003814  00000-0  25753-3 0  9996,2 52088  53.2155 197.4220 0001295  85.3684 274.7456 15.08851777 57468,6917.844,95.437,540.605,538.814,0.0
52088.0,STARLINK-3537,PAYLOAD,2023-03-14 14:59:38,15.08858144,0.0001097,53.2167,196.8286,74.849,285.2623,0.00034951,5.282e-05,0.0,0 STARLINK-3537,1 52088U 22029A   23073.62475217  .00005282  00000-0  34951-3 0  9999,2 52088  53.2167 196.8286 0001097  74.8490 285.2623 15.08858144 57484,6917.825,95.436,540.449,538.931,0.0
52088.0,STARLINK-3537,PAYLOAD,2023-03-14 16:35:01,15.08860556,0.0001198,53.2167,196.5315,77.5185,282.5941,0.00039054,5.936e-05,0.0,0 STARLINK-3537,1 52088U 22029A   23073.69099114  .00005936  00000-0  39054-3 0  9999,2 52088  53.2167 196.5315 0001198  77.5185 282.5941 15.08860556 57491,6917.818,95.436,540.511,538.854,0.0
52088.0,STARLINK-3537,PAYLOAD,2023-03-15 11:39:39,15.08858902,0.0001538,53.219,192.9653,106.6672,253.4489,0.00032608,4.908e-05,0.0,0 STARLINK-3537,1 52088U 22029A   23074.48587105  .00004908  00000-0  32608-3 0  9995,2 52088  53.2190 192.9653 0001538 106.6672 253.4489 15.08858902 57615,6917.823,95.436,540.752,538.624,0.0
52088.0,STARLINK-3537,PAYLOAD,2023-03-15 16:25:48,15.08875736,0.0001304,53.2188,192.0703,105.991,254.1226,0.00068582,0.00010654,0.0,0 STARLINK-3537,1 52088U 22029A   23074.68458374  .00010654  00000-0  68582-3 0  9997,2 52088  53.2188 192.0703 0001304 105.9910 254.1226 15.08875736 57641,6917.771,95.435,540.538,538.734,0.0
52088.0,STARLINK-3537,PAYLOAD,2023-03-16 11:30:26,15.08833889,0.0001325,53.2182,188.5018,117.1698,242.9429,-0.00011449,-2.109e-05,0.0,0 STARLINK-3537,1 52088U 22029A   23075.47947116 -.00002109  00000-0 -11449-3 0  9990,2 52088  53.2182 188.5018 0001325 117.1698 242.9429 15.08833889 57761,6917.899,95.438,540.681,538.847,0.0
52088.0,STARLINK-3537,PAYLOAD,2023-03-17 11:21:14,15.08821663,0.0001159,53.2175,184.0427,124.2607,235.8495,-0.00024687,-4.213e-05,0.0,0 STARLINK-3537,1 52088U 22029A   23076.47308711 -.00004213  00000-0 -24687-3 0  9999,2 52088  53.2175 184.0427 0001159 124.2607 235.8495 15.08821663 57910,6917.936,95.439,540.603,539.0,0.0
52088.0,STARLINK-3537,PAYLOAD,2023-03-18 00:04:20,15.0883296,0.0001244,53.2189,181.6646,96.294,263.8194,0.00025047,3.7e-05,0.0,0 STARLINK-3537,1 52088U 22029A   23077.00301094  .00003700  00000-0  25047-3 0  9995,2 52088  53.2189 181.6646 0001244  96.2940 263.8194 15.08832960 57991,6917.902,95.438,540.627,538.906,0.0
52088.0,STARLINK-3537,PAYLOAD,2023-03-18 12:47:25,15.08852059,9.09e-05,53.2174,179.2864,86.9916,273.1181,0.0012212,0.00019207,0.0,0 STARLINK-3537,1 52088U 22029A   23077.53292840  .00019207  00000-0  12212-2 0  9999,2 52088  53.2174 179.2864 0000909  86.9916 273.1181 15.08852059 58077,6917.844,95.437,540.337,539.08,0.0
52088.0,STARLINK-3537,PAYLOAD,2023-03-18 14:22:47,15.08868878,8.39e-05,53.2177,178.9897,86.9323,273.1765,0.0010011,0.00015693,0.0,0 STARLINK-3537,1 52088U 22029A   23077.59916044  .00015693  00000-0  10011-2 0  9994,2 52088  53.2177 178.9897 0000839  86.9323 273.1765 15.08868878 58081,6917.792,95.436,540.238,539.077,0.0
52088.0,STARLINK-3537,PAYLOAD,2023-03-19 11:02:47,15.08867584,8.23e-05,53.2183,175.124,96.0361,264.0725,0.00071263,0.0001108,0.0,0 STARLINK-3537,1 52088U 22029A   23078.46027511  .00011080  00000-0  71263-3 0  9996,2 52088  53.2183 175.1240 0000823  96.0361 264.0725 15.08867584 58219,6917.796,95.436,540.23,539.092,0.0
52088.0,STARLINK-3537,PAYLOAD,2023-03-19 12:38:10,15.08863209,0.0001132,53.2182,174.8256,91.2799,268.8323,0.0012412,0.00019533,0.0,0 STARLINK-3537,1 52088U 22029A   23078.52651595  .00019533  00000-0  12412-2 0  9999,2 52088  53.2182 174.8256 0001132  91.2799 268.8323 15.08863209 58224,6917.809,95.436,540.458,538.891,0.0
52088.0,STARLINK-3537,PAYLOAD,2023-03-19 15:48:56,15.08869499,0.0001018,53.2179,174.2302,94.2532,265.8576,0.00085721,0.00013392,0.0,0 STARLINK-3537,1 52088U 22029A   23078.65899259  .00013392  00000-0  85721-3 0  9995,2 52088  53.2179 174.2302 0001018  94.2532 265.8576 15.08869499 58243,6917.79,95.436,540.359,538.951,0.0
52088.0,STARLINK-3537,PAYLOAD,2023-03-19 23:45:53,15.0884006,0.0001947,53.2177,172.7454,71.8443,288.2761,0.00041294,6.29e-05,0.0,0 STARLINK-3537,1 52088U 22029A   23078.99019978  .00006290  00000-0  41294-3 0  9990,2 52088  53.2177 172.7454 0001947  71.8443 288.2761 15.08840060 58298,6917.88,95.438,541.092,538.398,0.0
52088.0,STARLINK-3537,PAYLOAD,2023-03-20 12:28:58,15.08838057,0.000145,53.2181,170.366,76.5196,283.5958,0.00083614,0.00013043,0.0,0 STARLINK-3537,1 52088U 22029A   23079.52012158  .00013043  00000-0  83614-3 0  9999,2 52088  53.2181 170.3660 0001450  76.5196 283.5958 15.08838057 58370,6917.886,95.438,540.754,538.748,0.0
52088.0,STARLINK-3537,PAYLOAD,2023-03-21 12:19:45,15.0885485,0.0001403,53.2176,165.9054,75.7774,284.3374,0.00061881,9.578e-05,0.0,0 STARLINK-3537,1 52088U 22029A   23080.51371743  .00009578  00000-0  61881-3 0  9998,2 52088  53.2176 165.9054 0001403  75.7774 284.3374 15.08854850 58529,6917.835,95.437,540.671,538.729,0.0
52088.0,STARLINK-3537,PAYLOAD,2023-03-22 05:48:59,15.08845301,0.0001154,53.2167,162.6345,86.903,273.2094,0.0001897,2.733e-05,0.0,0 STARLINK-3537,1 52088U 22029A   23081.24235842  .00002733  00000-0  18970-3 0  9995,2 52088  53.2167 162.6345 0001154  86.9030 273.2094 15.08845301 58637,6917.864,95.437,540.528,538.931,0.0
52088.0,STARLINK-3537,PAYLOAD,2023-03-22 12:10:32,15.08844585,0.0001286,53.2174,161.4457,89.6665,270.4474,0.00017804,2.547e-05,0.0,0 STARLINK-3537,1 52088U 22029A   23081.50731871  .00002547  00000-0  17804-3 0  9995,2 52088  53.2174 161.4457 0001286  89.6665 270.4474 15.08844585 58674,6917.866,95.437,540.621,538.842,0.0
52088.0,STARLINK-3537,PAYLOAD,2023-03-23 10:25:56,15.0884719,0.0001488,53.2181,157.2822,102.7321,257.3838,0.00016563,2.35e-05,0.0,0 STARLINK-3537,1 52088U 22029A   23082.43467771  .00002350  00000-0  16563-3 0  9996,2 52088  53.2181 157.2822 0001488 102.7321 257.3838 15.08847190 58810,6917.858,95.437,540.753,538.694,0.0
